1 47260U 20100C   22102.59584840  .00000514  00000-0  13921-2 0  9990
2 47260  87.8845 294.0516 0001853  75.9335 284.2000 13.12440918 64488
1 47260U 20100C   22102.90079764  .00000488  00000-0  13206-2 0  9995
2 47260  87.8846 293.9908 0001838  75.5209 284.6124 13.12440956 64529
1 47260U 20100C   22103.51069635  .00000374  00000-0  10043-2 0  9999
2 47260  87.8845 293.8689 0001826  76.4242 283.7090 13.12440563 64602
1 47260U 20100C   22103.81564467  .00000437  00000-0  11785-2 0  9999
2 47260  87.8845 293.8080 0001830  76.6325 283.5008 13.12441158 64648
1 47260U 20100C   22103.81564467  .00000437  00000-0  11785-2 0  9999
2 47260  87.8845 293.8080 0001830  76.6325 283.5008 13.12441158 64648
1 47260U 20100C   22104.57801626  .00000261  00000-0  69017-3 0  9991
2 47260  87.8844 293.6557 0001806  76.4009 283.7321 13.12441764 64748
1 47260U 20100C   22104.80672790  .00000202  00000-0  52673-3 0  9990
2 47260  87.8845 293.6101 0001799  76.2938 283.8391 13.12441614 64779
1 47260U 20100C   22105.03543874  .00000295  00000-0  78598-3 0  9992
2 47260  87.8843 293.5643 0001801  76.6640 283.4689 13.12441892 64803
1 47260U 20100C   22105.56909869  .00000175  00000-0  45024-3 0  9995
2 47260  87.8843 293.4577 0001787  76.7869 283.3459 13.12441814 64870
1 47260U 20100C   22105.79780943  .00000134  00000-0  33829-3 0  9995
2 47260  87.8843 293.4120 0001775  76.4203 283.7123 13.12442588 64905
1 47260U 20100C   22106.48394407 -.00000070  00000-0 -23013-3 0  9993
2 47260  87.8842 293.2750 0001772  76.8919 283.2407 13.12441686 64993
1 47260U 20100C   22106.56018079 -.00000060  00000-0 -20309-3 0  9994
2 47260  87.8842 293.2598 0001779  77.2981 282.8346 13.12442087 65000
1 47260U 20100C   22106.78889237 -.00000135  00000-0 -41079-3 0  9990
2 47260  87.8842 293.2142 0001771  76.9674 283.1652 13.12441813 65035
1 47260U 20100C   22107.55126334 -.00000285  00000-0 -82872-3 0  9990
2 47260  87.8843 293.0620 0001744  76.9933 283.1391 13.12441850 65135
1 47260U 20100C   22107.55126334 -.00000285  00000-0 -82872-3 0  9990
2 47260  87.8843 293.0620 0001744  76.9933 283.1391 13.12441850 65135
1 47260U 20100C   22107.77997501 -.00000345  00000-0 -99398-3 0  9994
2 47260  87.8844 293.0164 0001736  76.8956 283.2366 13.12441523 65167
1 47260U 20100C   22108.54234608 -.00000350  00000-0 -10086-2 0  9994
2 47260  87.8843 292.8640 0001739  77.0575 283.0748 13.12441656 65265
1 47260U 20100C   22108.77105736 -.00000332  00000-0 -95715-3 0  9991
2 47260  87.8843 292.8183 0001737  76.8768 283.2555 13.12441816 65295
1 47260U 20100C   22108.77105736 -.00000332  00000-0 -95715-3 0  9991
2 47260  87.8843 292.8183 0001737  76.8768 283.2555 13.12441816 65295
1 47260U 20100C   22109.53343015 -.00000420  00000-0 -12018-2 0  9992
2 47260  87.8842 292.6659 0001701  76.6270 283.5048 13.12441116 65391
1 47260U 20100C   22110.06709144 -.00000455  00000-0 -12989-2 0  9996
2 47260  87.8842 292.5592 0001686  76.4899 283.6417 13.12440731 65464
1 47260U 20100C   22110.44827757 -.00000318  00000-0 -92025-3 0  9997
2 47260  87.8842 292.4831 0001668  76.5056 283.6258 13.12440832 65516
1 47260U 20100C   22110.75322686 -.00000294  00000-0 -85341-3 0  9998
2 47260  87.8843 292.4221 0001663  76.4825 283.6488 13.12440810 65553
1 47260U 20100C   22111.43936325 -.00000169  00000-0 -50491-3 0  9994
2 47260  87.8842 292.2850 0001635  76.3940 283.7371 13.12440595 65646
1 47260U 20100C   22111.74431321 -.00000158  00000-0 -47427-3 0  9997
2 47260  87.8843 292.2240 0001629  76.5226 283.6084 13.12440156 65689
1 47260U 20100C   22112.50668847 -.00000175  00000-0 -52109-3 0  9999
2 47260  87.8845 292.0718 0001581  76.2890 283.8414 13.12439441 65785
1 47260U 20100C   22112.50668847 -.00000175  00000-0 -52109-3 0  9999
2 47260  87.8845 292.0718 0001581  76.2890 283.8414 13.12439441 65785
1 47260U 20100C   22113.49777405  .00000193  00000-0  50115-3 0  9992
2 47260  87.8844 291.8738 0001599  77.4982 282.6326 13.12440384 65919
1 47260U 20100C   22113.72648631  .00000257  00000-0  67807-3 0  9993
2 47260  87.8845 291.8282 0001606  77.5665 282.5643 13.12440292 65944
1 47260U 20100C   22114.41262149  .00000510  00000-0  13822-2 0  9995
2 47260  87.8845 291.6912 0001589  77.7903 282.3404 13.12441608 66035
1 47260U 20100C   22115.02252051  .00000506  00000-0  13718-2 0  9993
2 47260  87.8846 291.5695 0001553  76.4361 283.6940 13.12441340 66119
1 47260U 20100C   22115.47994377  .00000578  00000-0  15719-2 0  9998
2 47260  87.8847 291.4782 0001530  75.6835 284.4463 13.12442019 66177
1 47260U 20100C   22116.39479003  .00000434  00000-0  11709-2 0  9990
2 47260  87.8847 291.2954 0001520  76.5039 283.6259 13.12442990 66296
1 47260U 20100C   22116.47102718  .00000429  00000-0  11572-2 0  9997
2 47260  87.8847 291.2802 0001520  77.0022 283.1276 13.12443002 66307
1 47260U 20100C   22116.85221195  .00000498  00000-0  13477-2 0  9992
2 47260  87.8849 291.2041 0001508  77.3636 282.7661 13.12443884 66350
1 47260U 20100C   22117.46210894  .00000404  00000-0  10862-2 0  9996
2 47260  87.8848 291.0823 0001506  77.7498 282.3799 13.12443858 66431
1 47260U 20100C   22117.46210894  .00000404  00000-0  10862-2 0  9996
2 47260  87.8848 291.0823 0001506  77.7498 282.3799 13.12443858 66431
1 47260U 20100C   22118.52942709  .00000200  00000-0  51923-3 0  9999
2 47260  87.8849 290.8691 0001478  77.7716 282.3578 13.12444389 66573
1 47260U 20100C   22118.52942709  .00000200  00000-0  51923-3 0  9999
2 47260  87.8849 290.8691 0001478  77.7716 282.3578 13.12444389 66573
1 47260U 20100C   22119.52050778 -.00000026  00000-0 -10748-3 0  9994
2 47260  87.8850 290.6713 0001457  78.2792 281.8500 13.12444414 66708
1 47260U 20100C   22119.74921817 -.00000010  00000-0 -62959-4 0  9994
2 47260  87.8851 290.6257 0001453  78.6475 281.4816 13.12444813 66732
1 47260U 20100C   22119.90169172 -.00000013  00000-0 -72844-4 0  9997
2 47260  87.8851 290.5952 0001452  78.8624 281.2667 13.12445086 66757
1 47260U 20100C   22120.43535127 -.00000182  00000-0 -54262-3 0  9994
2 47260  87.8851 290.4887 0001453  79.5768 280.5525 13.12444225 66828
1 47260U 20100C   22120.89277243 -.00000202  00000-0 -59751-3 0  9997
2 47260  87.8851 290.3974 0001455  80.4896 279.6397 13.12444760 66885
1 47260U 20100C   22120.96900977 -.00000263  00000-0 -76705-3 0  9997
2 47260  87.8850 290.3822 0001445  80.6286 279.5005 13.12444356 66897
1 47260U 20100C   22121.50266871 -.00000336  00000-0 -96841-3 0  9990
2 47260  87.8849 290.2754 0001455  80.9333 279.1960 13.12444397 66964
1 47260U 20100C   22121.73137957 -.00000339  00000-0 -97692-3 0  9995
2 47260  87.8850 290.2297 0001453  81.0768 279.0524 13.12444442 66999
1 47260U 20100C   22122.18880224 -.00000376  00000-0 -10805-2 0  9998
2 47260  87.8850 290.1384 0001449  81.5370 278.5923 13.12443691 67054
1 47260U 20100C   22122.49375034 -.00000429  00000-0 -12286-2 0  9994
2 47260  87.8850 290.0775 0001446  81.7736 278.3556 13.12444046 67091
1 47260U 20100C   22122.72246213 -.00000494  00000-0 -14080-2 0  9992
2 47260  87.8851 290.0318 0001440  81.8959 278.2333 13.12443427 67125
1 47260U 20100C   22123.40859613 -.00000375  00000-0 -10773-2 0  9995
2 47260  87.8851 289.8946 0001424  82.8339 277.2951 13.12442993 67215
1 47260U 20100C   22123.48483282 -.00000364  00000-0 -10481-2 0  9992
2 47260  87.8851 289.8793 0001434  83.3454 276.7838 13.12443563 67223
1 47260U 20100C   22123.71354445 -.00000356  00000-0 -10254-2 0  9995
2 47260  87.8852 289.8337 0001436  83.5050 276.6242 13.12443285 67256
1 47260U 20100C   22124.47591687 -.00000305  00000-0 -88219-3 0  9991
2 47260  87.8853 289.6814 0001412  84.3824 275.7466 13.12442705 67352
1 47260U 20100C   22124.70462951 -.00000370  00000-0 -10627-2 0  9997
2 47260  87.8853 289.6358 0001410  84.6022 275.5267 13.12441827 67380
1 47260U 20100C   22124.70462951 -.00000370  00000-0 -10627-2 0  9997
2 47260  87.8853 289.6358 0001410  84.6022 275.5267 13.12441827 67380
1 47260U 20100C   22125.46700079 -.00000118  00000-0 -36308-3 0  9992
2 47260  87.8854 289.4837 0001401  84.9186 275.2102 13.12443228 67488
1 47260U 20100C   22125.84818786 -.00000094  00000-0 -29718-3 0  9999
2 47260  87.8855 289.4076 0001391  85.0759 275.0528 13.12442501 67539
1 47260U 20100C   22126.15313725 -.00000030  00000-0 -11775-3 0  9991
2 47260  87.8855 289.3466 0001393  85.1834 274.9453 13.12442321 67577
1 47260U 20100C   22126.45808614  .00000086  00000-0  20455-3 0  9994
2 47260  87.8855 289.2857 0001380  85.5552 274.5735 13.12442423 67614
1 47260U 20100C   22127.44917065  .00000263  00000-0  69521-3 0  9999
2 47260  87.8857 289.0879 0001368  86.3803 273.7482 13.12443034 67745
1 47260U 20100C   22127.52540836  .00000230  00000-0  60465-3 0  9998
2 47260  87.8857 289.0727 0001363  86.4189 273.7095 13.12442599 67756
1 47260U 20100C   22127.83035721  .00000321  00000-0  85632-3 0  9998
2 47260  87.8857 289.0118 0001367  86.9208 273.2077 13.12442879 67791
1 47260U 20100C   22128.51649223  .00000398  00000-0  10712-2 0  9992
2 47260  87.8858 288.8748 0001367  87.9469 272.1816 13.12443224 67882
1 47260U 20100C   22128.51649223  .00000398  00000-0  10712-2 0  9992
2 47260  87.8858 288.8748 0001367  87.9469 272.1816 13.12443224 67882
1 47260U 20100C   22128.82144173  .00000361  00000-0  96816-3 0  9990
2 47260  87.8859 288.8140 0001367  88.2165 271.9120 13.12442730 67927
1 47260U 20100C   22129.50757522  .00000518  00000-0  14032-2 0  9997
2 47260  87.8859 288.6770 0001363  88.6686 271.4598 13.12443839 68018
1 47260U 20100C   22129.73628654  .00000517  00000-0  14009-2 0  9998
2 47260  87.8859 288.6314 0001360  88.8314 271.2971 13.12443991 68044
1 47260U 20100C   22129.88876104  .00000453  00000-0  12228-2 0  9999
2 47260  87.8859 288.6010 0001354  88.7165 271.4119 13.12443915 68067
1 47260U 20100C   22130.42242043  .00000452  00000-0  12218-2 0  9998
2 47260  87.8860 288.4945 0001346  88.8736 271.2547 13.12444277 68133
1 47260U 20100C   22130.80360583  .00000398  00000-0  10708-2 0  9991
2 47260  87.8860 288.4183 0001347  89.6980 270.4303 13.12444174 68180
